{
  "norad_id": 60262,
  "name": "STARLINK-32163",
  "history": [
    {
      "epoch": "2026-03-28T22:01:56.089920Z",
      "apogee_km": 475.93428460716495,
      "perigee_km": 474.6293936601933,
      "latitude_deg": 8.495813227592751e-05,
      "longitude_deg": 166.22388712483172,
      "height_km": 476.32940677298546,
      "semi_major_axis_km": 6853.418839133678,
      "eccentricity": 9.52e-05,
      "inclination_deg": 53.1594,
      "raan_deg": 323.0391,
      "arg_perigee_deg": 103.2119,
      "mean_anomaly_deg": 256.8989,
      "mean_motion_rev_day": 15.30177638
    },
    {
      "epoch": "2026-03-29T01:10:01.985376Z",
      "apogee_km": 475.8951586888561,
      "perigee_km": 474.5779402926446,
      "latitude_deg": 1.4551135688552604e-05,
      "longitude_deg": 118.46452157759677,
      "height_km": 476.1487732750907,
      "semi_major_axis_km": 6853.3735494907505,
      "eccentricity": 9.61e-05,
      "inclination_deg": 53.16,
      "raan_deg": 322.4331,
      "arg_perigee_deg": 91.1951,
      "mean_anomaly_deg": 268.916,
      "mean_motion_rev_day": 15.30192806
    },
    {
      "epoch": "2026-03-30T00:40:48.640800Z",
      "apogee_km": 476.1694237412148,
      "perigee_km": 474.0649264491276,
      "latitude_deg": 7.146128229264937e-05,
      "longitude_deg": 120.25452394424867,
      "height_km": 475.93135147476784,
      "semi_major_axis_km": 6853.254175095171,
      "eccentricity": 0.00015354,
      "inclination_deg": 53.161,
      "raan_deg": 317.8831,
      "arg_perigee_deg": 85.4405,
      "mean_anomaly_deg": 274.6772,
      "mean_motion_rev_day": 15.30232787
    },
    {
      "epoch": "2026-03-30T14:47:18.026304Z",
      "apogee_km": 475.83705001172166,
      "perigee_km": 474.71596862986644,
      "latitude_deg": -3.567189415236855e-05,
      "longitude_deg": -94.67989644385557,
      "height_km": 476.1714460812218,
      "semi_major_axis_km": 6853.413509320793,
      "eccentricity": 8.179e-05,
      "inclination_deg": 53.1608,
      "raan_deg": 315.1506,
      "arg_perigee_deg": 89.6088,
      "mean_anomaly_deg": 270.5006,
      "mean_motion_rev_day": 15.30179423
    }
  ]
}